STARLINK-30542          
1 58041U 23156P   25335.80448610 -.00002223  00000+0 -62972-4 0  9994
2 58041  53.1597 172.9001 0000835  88.1058 272.0038 15.30197369121321
STARLINK-30563          
1 58042U 23156Q   25335.80285267  .00000411  00000+0  25996-4 0  9992
2 58042  53.1604 170.4347 0001323  91.9159 268.1993 15.30189641121368
STARLINK-30564          
1 58043U 23156R   25335.79399427 -.00049714  00000+0 -16793-2 0  9999
2 58043  53.1575 173.2048 0001435  75.7165 284.3995 15.30166736121324
STARLINK-30550          
1 58045U 23156T   25335.63890621  .00000263  00000+0  20999-4 0  9995
2 58045  53.1603  96.7880 0000685  55.9062 304.2004 15.30196542122369
STARLINK-30548          
1 58046U 23156U   25335.52821249  .00000226  00000+0  19746-4 0  9991
2 58046  53.1622 264.1532 0001245  92.0291 268.0852 15.30188375119959
STARLINK-30529          
1 58047U 23156V   25335.22907618  .00000421  00000+0  26335-4 0  9993
2 58047  53.1615 265.8206 0001353  90.6523 269.4633 15.30186083119901
STARLINK-30554          
1 58048U 23156W   25335.51343989  .00000197  00000+0  18794-4 0  9991
2 58048  53.1617 264.0590 0001530  80.6991 279.4182 15.30191311119951
STARLINK-30568          
1 58051U 23158A   25335.07416400  .00000262  00000+0  34479-4 0  9998
2 58051  43.0020 206.4703 0001382 267.4372  92.6312 15.02537075118690
STARLINK-30577          
1 58053U 23158C   25335.33675342 -.00000197  00000+0  45417-6 0  9995
2 58053  43.0028 204.9823 0000998 280.9869  79.0861 15.02541596118735
STARLINK-30566          
1 58054U 23158D   25335.06417711 -.00114410  00000+0 -86035-2 0  9992
2 58054  42.9975 206.3953 0002208 236.2815 123.7817 15.02488093118691
STARLINK-30544          
1 58055U 23158E   25335.04753245  .00000103  00000+0  22708-4 0  9996
2 58055  43.0027 206.2701 0001183 265.5013  94.5694 15.02536796118690
STARLINK-30553          
1 58056U 23158F   25335.05752328  .00000601  00000+0  59576-4 0  9995
2 58056  43.0028 206.3447 0001022 267.4580  92.6146 15.02536296118698
STARLINK-30541          
1 58057U 23158G   25335.32676105  .00000829  00000+0  76446-4 0  9991
2 58057  43.0024 204.9269 0000685 222.4630 137.6159 15.02538451118736
STARLINK-30573          
1 58058U 23158H   25335.05418935 -.00000574  00000+0 -27428-4 0  9992
2 58058  43.0001 206.3242 0001451 274.6667  85.4009 15.02535835118692
