[{"OBJECT_NAME":"STARLINK-30542","OBJECT_ID":"2023-156P","EPOCH":"2025-12-01T19:18:27.599040","MEAN_MOTION":15.30197369,"ECCENTRICITY":8.35e-5,"INCLINATION":53.1597,"RA_OF_ASC_NODE":172.9001,"ARG_OF_PERICENTER":88.1058,"MEAN_ANOMALY":272.0038,"EPHEMERIS_TYPE":0,"CLASSIFICATION_TYPE":"U","NORAD_CAT_ID":58041,"ELEMENT_SET_NO":999,"REV_AT_EPOCH":12132,"BSTAR":-6.2972e-5,"MEAN_MOTION_DOT":-2.223e-5,"MEAN_MOTION_DDOT":0},{"OBJECT_NAME":"STARLINK-30563","OBJECT_ID":"2023-156Q","EPOCH":"2025-12-01T19:16:06.470688","MEAN_MOTION":15.30189641,"ECCENTRICITY":0.0001323,"INCLINATION":53.1604,"RA_OF_ASC_NODE":170.4347,"ARG_OF_PERICENTER":91.9159,"MEAN_ANOMALY":268.1993,"EPHEMERIS_TYPE":0,"CLASSIFICATION_TYPE":"U","NORAD_CAT_ID":58042,"ELEMENT_SET_NO":999,"REV_AT_EPOCH":12136,"BSTAR":2.5996e-5,"MEAN_MOTION_DOT":4.11e-6,"MEAN_MOTION_DDOT":0},{"OBJECT_NAME":"STARLINK-30564","OBJECT_ID":"2023-156R","EPOCH":"2025-12-01T19:03:21.104928","MEAN_MOTION":15.30166736,"ECCENTRICITY":0.0001435,"INCLINATION":53.1575,"RA_OF_ASC_NODE":173.2048,"ARG_OF_PERICENTER":75.7165,"MEAN_ANOMALY":284.3995,"EPHEMERIS_TYPE":0,"CLASSIFICATION_TYPE":"U","NORAD_CAT_ID":58043,"ELEMENT_SET_NO":999,"REV_AT_EPOCH":12132,"BSTAR":-0.0016793,"MEAN_MOTION_DOT":-0.00049714,"MEAN_MOTION_DDOT":0},{"OBJECT_NAME":"STARLINK-30550","OBJECT_ID":"2023-156T","EPOCH":"2025-12-01T15:20:01.495680","MEAN_MOTION":15.30196542,"ECCENTRICITY":6.86e-5,"INCLINATION":53.1603,"RA_OF_ASC_NODE":96.788,"ARG_OF_PERICENTER":55.9062,"MEAN_ANOMALY":304.2004,"EPHEMERIS_TYPE":0,"CLASSIFICATION_TYPE":"U","NORAD_CAT_ID":58045,"ELEMENT_SET_NO":999,"REV_AT_EPOCH":12236,"BSTAR":2.0999e-5,"MEAN_MOTION_DOT":2.63e-6,"MEAN_MOTION_DDOT":0},{"OBJECT_NAME":"STARLINK-30548","OBJECT_ID":"2023-156U","EPOCH":"2025-12-01T12:40:37.559136","MEAN_MOTION":15.30188375,"ECCENTRICITY":0.0001245,"INCLINATION":53.1622,"RA_OF_ASC_NODE":264.1532,"ARG_OF_PERICENTER":92.0291,"MEAN_ANOMALY":268.0852,"EPHEMERIS_TYPE":0,"CLASSIFICATION_TYPE":"U","NORAD_CAT_ID":58046,"ELEMENT_SET_NO":999,"REV_AT_EPOCH":11995,"BSTAR":1.9746e-5,"MEAN_MOTION_DOT":2.26e-6,"MEAN_MOTION_DDOT":0},{"OBJECT_NAME":"STARLINK-30529","OBJECT_ID":"2023-156V","EPOCH":"2025-12-01T05:29:52.181952","MEAN_MOTION":15.30186083,"ECCENTRICITY":0.0001353,"INCLINATION":53.1615,"RA_OF_ASC_NODE":265.8206,"ARG_OF_PERICENTER":90.6523,"MEAN_ANOMALY":269.4633,"EPHEMERIS_TYPE":0,"CLASSIFICATION_TYPE":"U","NORAD_CAT_ID":58047,"ELEMENT_SET_NO":999,"REV_AT_EPOCH":11990,"BSTAR":2.6335e-5,"MEAN_MOTION_DOT":4.21e-6,"MEAN_MOTION_DDOT":0},{"OBJECT_NAME":"STARLINK-30554","OBJECT_ID":"2023-156W","EPOCH":"2025-12-01T12:19:21.205632","MEAN_MOTION":15.30191311,"ECCENTRICITY":0.000153,"INCLINATION":53.1617,"RA_OF_ASC_NODE":264.059,"ARG_OF_PERICENTER":80.6991,"MEAN_ANOMALY":279.4182,"EPHEMERIS_TYPE":0,"CLASSIFICATION_TYPE":"U","NORAD_CAT_ID":58048,"ELEMENT_SET_NO":999,"REV_AT_EPOCH":11995,"BSTAR":1.8794e-5,"MEAN_MOTION_DOT":1.97e-6,"MEAN_MOTION_DDOT":0},{"OBJECT_NAME":"STARLINK-30568","OBJECT_ID":"2023-158A","EPOCH":"2025-12-01T01:46:47.769600","MEAN_MOTION":15.02537075,"ECCENTRICITY":0.00013824,"INCLINATION":43.002,"RA_OF_ASC_NODE":206.4703,"ARG_OF_PERICENTER":267.4372,"MEAN_ANOMALY":92.6312,"EPHEMERIS_TYPE":0,"CLASSIFICATION_TYPE":"U","NORAD_CAT_ID":58051,"ELEMENT_SET_NO":999,"REV_AT_EPOCH":11869,"BSTAR":3.4479042e-5,"MEAN_MOTION_DOT":2.62e-6,"MEAN_MOTION_DDOT":0},{"OBJECT_NAME":"STARLINK-30577","OBJECT_ID":"2023-158C","EPOCH":"2025-12-01T08:04:55.494624","MEAN_MOTION":15.02541596,"ECCENTRICITY":9.98e-5,"INCLINATION":43.0028,"RA_OF_ASC_NODE":204.9823,"ARG_OF_PERICENTER":280.9869,"MEAN_ANOMALY":79.0861,"EPHEMERIS_TYPE":0,"CLASSIFICATION_TYPE":"U","NORAD_CAT_ID":58053,"ELEMENT_SET_NO":999,"REV_AT_EPOCH":11873,"BSTAR":4.5417e-7,"MEAN_MOTION_DOT":-1.97e-6,"MEAN_MOTION_DDOT":0},{"OBJECT_NAME":"STARLINK-30566","OBJECT_ID":"2023-158D","EPOCH":"2025-12-01T01:32:24.902304","MEAN_MOTION":15.02488093,"ECCENTRICITY":0.0002208,"INCLINATION":42.9975,"RA_OF_ASC_NODE":206.3953,"ARG_OF_PERICENTER":236.2815,"MEAN_ANOMALY":123.7817,"EPHEMERIS_TYPE":0,"CLASSIFICATION_TYPE":"U","NORAD_CAT_ID":58054,"ELEMENT_SET_NO":999,"REV_AT_EPOCH":11869,"BSTAR":-0.0086034736,"MEAN_MOTION_DOT":-0.0011441,"MEAN_MOTION_DDOT":0},{"OBJECT_NAME":"STARLINK-30544","OBJECT_ID":"2023-158E","EPOCH":"2025-12-01T01:08:26.803680","MEAN_MOTION":15.02536796,"ECCENTRICITY":0.00011836,"INCLINATION":43.0027,"RA_OF_ASC_NODE":206.2701,"ARG_OF_PERICENTER":265.5013,"MEAN_ANOMALY":94.5694,"EPHEMERIS_TYPE":0,"CLASSIFICATION_TYPE":"U","NORAD_CAT_ID":58055,"ELEMENT_SET_NO":999,"REV_AT_EPOCH":11869,"BSTAR":2.2707789e-5,"MEAN_MOTION_DOT":1.03e-6,"MEAN_MOTION_DDOT":0},{"OBJECT_NAME":"STARLINK-30553","OBJECT_ID":"2023-158F","EPOCH":"2025-12-01T01:22:50.011392","MEAN_MOTION":15.02536296,"ECCENTRICITY":0.0001022,"INCLINATION":43.0028,"RA_OF_ASC_NODE":206.3447,"ARG_OF_PERICENTER":267.458,"MEAN_ANOMALY":92.6146,"EPHEMERIS_TYPE":0,"CLASSIFICATION_TYPE":"U","NORAD_CAT_ID":58056,"ELEMENT_SET_NO":999,"REV_AT_EPOCH":11869,"BSTAR":5.9575734e-5,"MEAN_MOTION_DOT":6.01e-6,"MEAN_MOTION_DDOT":0},{"OBJECT_NAME":"STARLINK-30541","OBJECT_ID":"2023-158G","EPOCH":"2025-12-01T07:50:32.153856","MEAN_MOTION":15.0253845,"ECCENTRICITY":6.85e-5,"INCLINATION":43.0024,"RA_OF_ASC_NODE":204.9269,"ARG_OF_PERICENTER":222.463,"MEAN_ANOMALY":137.6159,"EPHEMERIS_TYPE":0,"CLASSIFICATION_TYPE":"U","NORAD_CAT_ID":58057,"ELEMENT_SET_NO":999,"REV_AT_EPOCH":11873,"BSTAR":7.6446e-5,"MEAN_MOTION_DOT":8.29e-6,"MEAN_MOTION_DDOT":0},{"OBJECT_NAME":"STARLINK-30573","OBJECT_ID":"2023-158H","EPOCH":"2025-12-01T01:18:01.959840","MEAN_MOTION":15.02535835,"ECCENTRICITY":0.00014515,"INCLINATION":43.0001,"RA_OF_ASC_NODE":206.3242,"ARG_OF_PERICENTER":274.6667,"MEAN_ANOMALY":85.4009,"EPHEMERIS_TYPE":0,"CLASSIFICATION_TYPE":"U","NORAD_CAT_ID":58058,"ELEMENT_SET_NO":999,"REV_AT_EPOCH":11869,"BSTAR":-2.7428435e-5,"MEAN_MOTION_DOT":-5.74e-6,"MEAN_MOTION_DDOT":0}]
